{"type": "FeatureCollection", "features": [ {"type": "Feature", "properties": {"norad_id": 32289, "name": "YAOGAN-3", "group": "resource", "lat": 80.70886553631033, "lon": -101.956723139222, "alt_km": 590.0999991900198, "timestamp": "2025-12-20T03:42:47.048705+00:00", "meta": {"OBJECT_NAME": "YAOGAN-3", "OBJECT_ID": "2007-055A", "EPOCH": "2025-12-19T20:50:27.561984", "MEAN_MOTION": 14.89888334, "ECCENTRICITY": 0.0001199, "INCLINATION": 97.8359, "RA_OF_ASC_NODE": 20.4298, "ARG_OF_PERICENTER": 72.2369, "MEAN_ANOMALY": 287.898, "EPHEMERIS_TYPE": 0, "CLASSIFICATION_TYPE": "U", "NORAD_CAT_ID": 32289, "ELEMENT_SET_NO": 999, "REV_AT_EPOCH": 97915, "BSTAR": 0.00011461, "MEAN_MOTION_DOT": 1.047e-05, "MEAN_MOTION_DDOT": 0}, "tle": {"line1": "1 32289U 07055A   25353.86837456  .00001047  00000+0  11461-3 0  9993", "line2": "2 32289  97.8359  20.4298 0001199  72.2369 287.8980 14.89888334979150"}}, "geometry": {"type": "Point", "coordinates": [-101.956723139222, 80.70886553631033]}}, {"type": "Feature", "properties": {"norad_id": 32376, "name": "COSMO-SKYMED 2", "group": "resource", "lat": 11.57189061223424, "lon": -3.008188682199495, "alt_km": 623.8780863160537, "timestamp": "2025-12-20T03:42:47.048715+00:00", "meta": {"OBJECT_NAME": "COSMO-SKYMED 2", "OBJECT_ID": "2007-059A", "EPOCH": "2025-12-19T20:28:32.535840", "MEAN_MOTION": 14.82150683, "ECCENTRICITY": 0.0001354, "INCLINATION": 97.8803, "RA_OF_ASC_NODE": 175.0698, "ARG_OF_PERICENTER": 82.9674, "MEAN_ANOMALY": 277.1693, "EPHEMERIS_TYPE": 0, "CLASSIFICATION_TYPE": "U", "NORAD_CAT_ID": 32376, "ELEMENT_SET_NO": 999, "REV_AT_EPOCH": 97543, "BSTAR": 5.1902e-05, "MEAN_MOTION_DOT": 3.61e-06, "MEAN_MOTION_DDOT": 0}, "tle": {"line1": "1 32376U 07059A   25353.85315435  .00000361  00000+0  51902-4 0  9994", "line2": "2 32376  97.8803 175.0698 0001354  82.9674 277.1693 14.82150683975434"}}, "geometry": {"type": "Point", "coordinates": [-3.008188682199495, 11.57189061223424]}}, {"type": "Feature", "properties": {"norad_id": 32382, "name": "RADARSAT-2", "group": "resource", "lat": 12.886486030000974, "lon": -179.38357738134093, "alt_km": 792.7977461311348, "timestamp": "2025-12-20T03:42:47.048725+00:00", "meta": {"OBJECT_NAME": "RADARSAT-2", "OBJECT_ID": "2007-061A", "EPOCH": "2025-12-19T20:13:05.602080", "MEAN_MOTION": 14.29983743, "ECCENTRICITY": 0.000113, "INCLINATION": 98.5791, "RA_OF_ASC_NODE": 358.3295, "ARG_OF_PERICENTER": 84.744, "MEAN_ANOMALY": 275.3871, "EPHEMERIS_TYPE": 0, "CLASSIFICATION_TYPE": "U", "NORAD_CAT_ID": 32382, "ELEMENT_SET_NO": 999, "REV_AT_EPOCH": 94032, "BSTAR": 4.9843e-05, "MEAN_MOTION_DOT": 8.5e-07, "MEAN_MOTION_DDOT": 0}, "tle": {"line1": "1 32382U 07061A   25353.84242595  .00000085  00000+0  49843-4 0  9993", "line2": "2 32382  98.5791 358.3295 0001130  84.7440 275.3871 14.29983743940327"}}, "geometry": {"type": "Point", "coordinates": [-179.38357738134093, 12.886486030000974]}}, {"type": "Feature", "properties": {"norad_id": 32783, "name": "CARTOSAT-2A", "group": "resource", "lat": -41.799327236513186, "lon": -143.28586041392145, "alt_km": 643.0209309785141, "timestamp": "2025-12-20T03:42:47.048736+00:00", "meta": {"OBJECT_NAME": "CARTOSAT-2A", "OBJECT_ID": "2008-021A", "EPOCH": "2025-12-19T20:12:56.566368", "MEAN_MOTION": 14.78949368, "ECCENTRICITY": 0.0011297, "INCLINATION": 97.7925, "RA_OF_ASC_NODE": 43.4443, "ARG_OF_PERICENTER": 341.6051, "MEAN_ANOMALY": 18.475, "EPHEMERIS_TYPE": 0, "CLASSIFICATION_TYPE": "U", "NORAD_CAT_ID": 32783, "ELEMENT_SET_NO": 999, "REV_AT_EPOCH": 95229, "BSTAR": 0.000111, "MEAN_MOTION_DOT": 7.69e-06, "MEAN_MOTION_DDOT": 0}, "tle": {"line1": "1 32783U 08021A   25353.84232137  .00000769  00000+0  11100-3 0  9999", "line2": "2 32783  97.7925  43.4443 0011297 341.6051  18.4750 14.78949368952297"}}, "geometry": {"type": "Point", "coordinates": [-143.28586041392145, -41.799327236513186]}}, {"type": "Feature", "properties": {"norad_id": 33320, "name": "HUANJING 1A (HJ-1A)", "group": "resource", "lat": -26.337424810217517, "lon": 158.326552770128, "alt_km": 637.5299461712357, "timestamp": "2025-12-20T03:42:47.048746+00:00", "meta": {"OBJECT_NAME": "HUANJING 1A (HJ-1A)", "OBJECT_ID": "2008-041A", "EPOCH": "2025-12-19T21:55:42.135168", "MEAN_MOTION": 14.83413838, "ECCENTRICITY": 0.0019635, "INCLINATION": 97.6535, "RA_OF_ASC_NODE": 341.9125, "ARG_OF_PERICENTER": 11.5846, "MEAN_ANOMALY": 348.5816, "EPHEMERIS_TYPE": 0, "CLASSIFICATION_TYPE": "U", "NORAD_CAT_ID": 33320, "ELEMENT_SET_NO": 999, "REV_AT_EPOCH": 93182, "BSTAR": 9.78e-05, "MEAN_MOTION_DOT": 7.54e-06, "MEAN_MOTION_DDOT": 0}, "tle": {"line1": "1 33320U 08041A   25353.91368212  .00000754  00000+0  97800-4 0  9997", "line2": "2 33320  97.6535 341.9125 0019635  11.5846 348.5816 14.83413838931823"}}, "geometry": {"type": "Point", "coordinates": [158.326552770128, -26.337424810217517]}}, {"type": "Feature", "properties": {"norad_id": 33321, "name": "HUANJING 1B (HJ-1B)", "group": "resource", "lat": 51.58330333326469, "lon": -23.922908041052946, "alt_km": 589.0172341012103, "timestamp": "2025-12-20T03:42:47.048757+00:00", "meta": {"OBJECT_NAME": "HUANJING 1B (HJ-1B)", "OBJECT_ID": "2008-041B", "EPOCH": "2025-12-19T21:00:06.607872", "MEAN_MOTION": 14.82839443, "ECCENTRICITY": 0.0037999, "INCLINATION": 97.6396, "RA_OF_ASC_NODE": 345.5538, "ARG_OF_PERICENTER": 53.249, "MEAN_ANOMALY": 307.2203, "EPHEMERIS_TYPE": 0, "CLASSIFICATION_TYPE": "U", "NORAD_CAT_ID": 33321, "ELEMENT_SET_NO": 999, "REV_AT_EPOCH": 93183, "BSTAR": 0.00015537, "MEAN_MOTION_DOT": 1.222e-05, "MEAN_MOTION_DDOT": 0}, "tle": {"line1": "1 33321U 08041B   25353.87507648  .00001222  00000+0  15537-3 0  9998", "line2": "2 33321  97.6396 345.5538 0037999  53.2490 307.2203 14.82839443931834"}}, "geometry": {"type": "Point", "coordinates": [-23.922908041052946, 51.58330333326469]}}, {"type": "Feature", "properties": {"norad_id": 33331, "name": "GEOEYE 1", "group": "resource", "lat": -79.57734361809332, "lon": 116.29315446222894, "alt_km": 683.5372062035167, "timestamp": "2025-12-20T03:42:47.048767+00:00", "meta": {"OBJECT_NAME": "GEOEYE 1", "OBJECT_ID": "2008-042A", "EPOCH": "2025-12-19T18:15:22.928256", "MEAN_MOTION": 14.64709112, "ECCENTRICITY": 0.0002801, "INCLINATION": 98.1245, "RA_OF_ASC_NODE": 64.9529, "ARG_OF_PERICENTER": 254.2617, "MEAN_ANOMALY": 105.8277, "EPHEMERIS_TYPE": 0, "CLASSIFICATION_TYPE": "U", "NORAD_CAT_ID": 33331, "ELEMENT_SET_NO": 999, "REV_AT_EPOCH": 92388, "BSTAR": 8.4483e-05, "MEAN_MOTION_DOT": 4.02e-06, "MEAN_MOTION_DDOT": 0}, "tle": {"line1": "1 33331U 08042A   25353.76068204  .00000402  00000+0  84483-4 0  9994", "line2": "2 33331  98.1245  64.9529 0002801 254.2617 105.8277 14.64709112923882"}}, "geometry": {"type": "Point", "coordinates": [116.29315446222894, -79.57734361809332]}}, {"type": "Feature", "properties": {"norad_id": 33396, "name": "THEOS", "group": "resource", "lat": 23.158471564026442, "lon": 48.32041087700987, "alt_km": 824.2597788480261, "timestamp": "2025-12-20T03:42:47.048778+00:00", "meta": {"OBJECT_NAME": "THEOS", "OBJECT_ID": "2008-049A", "EPOCH": "2025-12-19T20:50:20.857344", "MEAN_MOTION": 14.20097574, "ECCENTRICITY": 0.0001167, "INCLINATION": 98.5863, "RA_OF_ASC_NODE": 51.7479, "ARG_OF_PERICENTER": 95.8421, "MEAN_ANOMALY": 264.2889, "EPHEMERIS_TYPE": 0, "CLASSIFICATION_TYPE": "U", "NORAD_CAT_ID": 33396, "ELEMENT_SET_NO": 999, "REV_AT_EPOCH": 89251, "BSTAR": 5.857e-05, "MEAN_MOTION_DOT": 8.2e-07, "MEAN_MOTION_DDOT": 0}, "tle": {"line1": "1 33396U 08049A   25353.86829696  .00000082  00000+0  58570-4 0  9995", "line2": "2 33396  98.5863  51.7479 0001167  95.8421 264.2889 14.20097574892515"}}, "geometry": {"type": "Point", "coordinates": [48.32041087700987, 23.158471564026442]}}, {"type": "Feature", "properties": {"norad_id": 33412, "name": "COSMO-SKYMED 3", "group": "resource", "lat": -43.908248059818675, "lon": 17.042962295688906, "alt_km": 554.3351744394831, "timestamp": "2025-12-20T03:42:47.048788+00:00", "meta": {"OBJECT_NAME": "COSMO-SKYMED 3", "OBJECT_ID": "2008-054A", "EPOCH": "2025-12-19T20:20:23.611200", "MEAN_MOTION": 15.05421908, "ECCENTRICITY": 0.0016868, "INCLINATION": 97.8468, "RA_OF_ASC_NODE": 204.3593, "ARG_OF_PERICENTER": 148.0614, "MEAN_ANOMALY": 212.1638, "EPHEMERIS_TYPE": 0, "CLASSIFICATION_TYPE": "U", "NORAD_CAT_ID": 33412, "ELEMENT_SET_NO": 999, "REV_AT_EPOCH": 92994, "BSTAR": 0.00042273, "MEAN_MOTION_DOT": 6.022e-05, "MEAN_MOTION_DDOT": 0}, "tle": {"line1": "1 33412U 08054A   25353.84749550  .00006022  00000+0  42273-3 0  9990", "line2": "2 33412  97.8468 204.3593 0016868 148.0614 212.1638 15.05421908929947"}}, "geometry": {"type": "Point", "coordinates": [17.042962295688906, -43.908248059818675]}}, {"type": "Feature", "properties": {"norad_id": 33446, "name": "YAOGAN-4", "group": "resource", "lat": -39.15158195001802, "lon": -69.31153049464699, "alt_km": 618.8195061877905, "timestamp": "2025-12-20T03:42:47.048799+00:00", "meta": {"OBJECT_NAME": "YAOGAN-4", "OBJECT_ID": "2008-061A", "EPOCH": "2025-12-19T10:04:29.303904", "MEAN_MOTION": 14.8270055, "ECCENTRICITY": 0.0013167, "INCLINATION": 97.919, "RA_OF_ASC_NODE": 283.4536, "ARG_OF_PERICENTER": 299.8838, "MEAN_ANOMALY": 60.1067, "EPHEMERIS_TYPE": 0, "CLASSIFICATION_TYPE": "U", "NORAD_CAT_ID": 33446, "ELEMENT_SET_NO": 999, "REV_AT_EPOCH": 91902, "BSTAR": 0.00012167, "MEAN_MOTION_DOT": 9.29e-06, "MEAN_MOTION_DDOT": 0}, "tle": {"line1": "1 33446U 08061A   25353.41978361  .00000929  00000+0  12167-3 0  9991", "line2": "2 33446  97.9190 283.4536 0013167 299.8838  60.1067 14.82700550919026"}}, "geometry": {"type": "Point", "coordinates": [-69.31153049464699, -39.15158195001802]}}]}